NORAD_CAT_ID,OBJECT_NAME,OBJECT_TYPE,EPOCH,MEAN_MOTION,ECCENTRICITY,INCLINATION,RA_OF_ASC_NODE,ARG_OF_PERICENTER,MEAN_ANOMALY,BSTAR,MEAN_MOTION_DOT,MEAN_MOTION_DDOT,TLE_LINE0,TLE_LINE1,TLE_LINE2,SEMIMAJOR_AXIS,PERIOD,APOGEE,PERIGEE,DECAYED
53853.0,STARLINK-4794,PAYLOAD,2023-01-28 06:14:21,15.08855055,0.0001187,53.2194,355.4454,91.0359,269.0769,0.0013042,0.00020538,0.0,0 STARLINK-4794,1 53853U 22114AM  23028.25996572  .00020538  00000-0  13042-2 0  9994,2 53853  53.2194 355.4454 0001187  91.0359 269.0769 15.08855055 20872,6917.834,95.437,540.521,538.878,0.0
53853.0,STARLINK-4794,PAYLOAD,2023-01-28 07:49:44,15.08858685,0.0001168,53.2193,355.1485,90.1631,269.9495,0.0014268,0.00022504,0.0,0 STARLINK-4794,1 53853U 22114AM  23028.32620507  .00022504  00000-0  14268-2 0  9990,2 53853  53.2193 355.1485 0001168  90.1631 269.9495 15.08858685 21423,6917.823,95.436,540.496,538.88,0.0
53853.0,STARLINK-4794,PAYLOAD,2023-01-28 22:08:12,15.08847668,0.0001253,53.2201,352.4712,81.0651,279.0483,0.00065373,0.00010134,0.0,0 STARLINK-4794,1 53853U 22114AM  23028.92236408  .00010134  00000-0  65373-3 0  9999,2 53853  53.2201 352.4712 0001253  81.0651 279.0483 15.08847668 20979,6917.857,95.437,540.589,538.855,0.0
53853.0,STARLINK-4794,PAYLOAD,2023-01-29 06:05:07,15.08860906,0.0001059,53.2182,350.9852,92.4114,267.6999,0.0010172,0.00015947,0.0,0 STARLINK-4794,1 53853U 22114AM  23029.25355928  .00015947  00000-0  10172-2 0  9998,2 53853  53.2182 350.9852 0001059  92.4114 267.6999 15.08860906 21021,6917.816,95.436,540.414,538.949,0.0
53853.0,STARLINK-4794,PAYLOAD,2023-01-30 07:31:18,15.08838327,0.0001164,53.2181,346.2279,90.3826,269.73,6.9311e-05,8.15e-06,0.0,0 STARLINK-4794,1 53853U 22114AM  23030.31340487  .00000815  00000-0  69311-4 0  9990,2 53853  53.2181 346.2279 0001164  90.3826 269.7300 15.08838327 21183,6917.886,95.438,540.556,538.945,0.0
53853.0,STARLINK-4794,PAYLOAD,2023-01-30 12:17:27,15.08835721,0.0001089,53.2176,345.3353,89.83,270.2817,-1.6872e-05,-5.56e-06,0.0,0 STARLINK-4794,1 53853U 22114AM  23030.51212608 -.00000556  00000-0 -16872-4 0  9993,2 53853  53.2176 345.3353 0001089  89.8300 270.2817 15.08835721 21754,6917.893,95.438,540.512,539.005,0.0
53853.0,STARLINK-4794,PAYLOAD,2023-01-31 05:46:42,15.08841837,0.0001148,53.2174,342.0648,89.6631,270.4493,0.00027026,4.016e-05,0.0,0 STARLINK-4794,1 53853U 22114AM  23031.24076820  .00004016  00000-0  27026-3 0  9993,2 53853  53.2174 342.0648 0001148  89.6631 270.4493 15.08841837 21863,6917.875,95.437,540.534,538.946,0.0
53853.0,STARLINK-4794,PAYLOAD,2023-02-01 05:37:28,15.08867691,0.0001178,53.2171,337.6041,93.6263,266.4864,0.00083185,0.00012986,0.0,0 STARLINK-4794,1 53853U 22114AM  23032.23435941  .00012986  00000-0  83185-3 0  9999,2 53853  53.2171 337.6041 0001178  93.6263 266.4864 15.08867691 21476,6917.796,95.436,540.476,538.846,0.0
53853.0,STARLINK-4794,PAYLOAD,2023-02-02 02:17:30,15.08830371,0.000143,53.2178,333.74,81.3993,278.7161,2.5942e-05,1.25e-06,0.0,0 STARLINK-4794,1 53853U 22114AM  23033.09549000  .00000125  00000-0  25942-4 0  9996,2 53853  53.2178 333.7400 0001430  81.3993 278.7161 15.08830371 21600,6917.91,95.438,540.764,538.786,0.0
53853.0,STARLINK-4794,PAYLOAD,2023-02-02 05:28:16,15.08840662,0.0001322,53.2172,333.1433,84.3082,275.8061,0.00023959,3.527e-05,0.0,0 STARLINK-4794,1 53853U 22114AM  23033.22796880  .00003527  00000-0  23959-3 0  9995,2 53853  53.2172 333.1433 0001322  84.3082 275.8061 15.08840662 22169,6917.878,95.438,540.658,538.829,0.0
53853.0,STARLINK-4794,PAYLOAD,2023-02-02 22:57:31,15.08850657,0.0001396,53.2178,329.873,81.0163,279.0987,0.0007957,0.00012402,0.0,0 STARLINK-4794,1 53853U 22114AM  23033.95660928  .00012402  00000-0  79570-3 0  9990,2 53853  53.2178 329.8730 0001396  81.0163 279.0987 15.08850657 21732,6917.848,95.437,540.679,538.747,0.0
53853.0,STARLINK-4794,PAYLOAD,2023-02-03 05:19:03,15.08864988,0.0001359,53.2178,328.6831,80.5934,279.5212,0.0010688,0.00016774,0.0,0 STARLINK-4794,1 53853U 22114AM  23034.22156499  .00016774  00000-0  10688-2 0  9994,2 53853  53.2178 328.6831 0001359  80.5934 279.5212 15.08864988 22313,6917.804,95.436,540.609,538.729,0.0
53853.0,STARLINK-4794,PAYLOAD,2023-02-04 05:09:50,15.08859262,0.0001252,53.2181,324.2231,87.6158,272.4977,0.00081385,0.00012695,0.0,0 STARLINK-4794,1 53853U 22114AM  23035.21516297  .00012695  00000-0  81385-3 0  9991,2 53853  53.2181 324.2231 0001252  87.6158 272.4977 15.08859262 21926,6917.822,95.436,540.553,538.82,0.0
53853.0,STARLINK-4794,PAYLOAD,2023-02-04 19:28:18,15.08839548,0.0001394,53.2185,321.5475,87.5202,272.595,0.00069466,0.00010785,0.0,0 STARLINK-4794,1 53853U 22114AM  23035.81132563  .00010785  00000-0  69466-3 0  9991,2 53853  53.2185 321.5475 0001394  87.5202 272.5950 15.08839548 22553,6917.882,95.438,540.711,538.782,0.0
53853.0,STARLINK-4794,PAYLOAD,2023-02-04 22:39:04,15.08839099,0.0001346,53.2186,320.9529,86.0176,274.097,0.00081916,0.00012773,0.0,0 STARLINK-4794,1 53853U 22114AM  23035.94380697  .00012773  00000-0  81916-3 0  9991,2 53853  53.2186 320.9529 0001346  86.0176 274.0970 15.08839099 22031,6917.883,95.438,540.679,538.817,0.0
53853.0,STARLINK-4794,PAYLOAD,2023-02-05 05:00:37,15.08844865,0.000126,53.2182,319.7637,78.6347,281.4786,0.0010413,0.00016325,0.0,0 STARLINK-4794,1 53853U 22114AM  23036.20876746  .00016325  00000-0  10413-2 0  9996,2 53853  53.2182 319.7637 0001260  78.6347 281.4786 15.08844865 22613,6917.866,95.437,540.602,538.859,0.0
53853.0,STARLINK-4794,PAYLOAD,2023-02-05 19:19:06,15.088388,0.0001642,53.2183,317.0863,81.2461,278.8717,0.00058417,9.021e-05,0.0,0 STARLINK-4794,1 53853U 22114AM  23036.80493139  .00009021  00000-0  58417-3 0  9995,2 53853  53.2183 317.0863 0001642  81.2461 278.8717 15.08838800 22163,6917.884,95.438,540.885,538.613,0.0
53853.0,STARLINK-4794,PAYLOAD,2023-02-05 22:29:52,15.08840501,0.0001277,53.2181,316.4911,87.8607,272.2532,0.00062389,9.655e-05,0.0,0 STARLINK-4794,1 53853U 22114AM  23036.93741102  .00009655  00000-0  62389-3 0  9991,2 53853  53.2181 316.4911 0001277  87.8607 272.2532 15.08840501 22722,6917.879,95.438,540.627,538.86,0.0
53853.0,STARLINK-4794,PAYLOAD,2023-02-06 03:16:01,15.08851496,0.000117,53.217,315.5995,83.2644,276.8481,0.00099776,0.00015632,0.0,0 STARLINK-4794,1 53853U 22114AM  23037.13612956  .00015632  00000-0  99776-3 0  9990,2 53853  53.2170 315.5995 0001170  83.2644 276.8481 15.08851496 22756,6917.845,95.437,540.52,538.901,0.0
53853.0,STARLINK-4794,PAYLOAD,2023-02-06 17:34:29,15.08852892,0.0001526,53.2175,312.925,84.864,275.2526,0.0010244,0.00016059,0.0,0 STARLINK-4794,1 53853U 22114AM  23037.73228946  .00016059  00000-0  10244-2 0  9994,2 53853  53.2175 312.9250 0001526  84.8640 275.2526 15.08852892 22848,6917.841,95.437,540.762,538.65,0.0
53853.0,STARLINK-4794,PAYLOAD,2023-02-06 22:20:39,15.08854206,0.0001436,53.2175,312.0327,83.2592,276.8564,0.00094012,0.00014711,0.0,0 STARLINK-4794,1 53853U 22114AM  23037.93100886  .00014711  00000-0  94012-3 0  9997,2 53853  53.2175 312.0327 0001436  83.2592 276.8564 15.08854206 22337,6917.837,95.437,540.695,538.709,0.0
53853.0,STARLINK-4794,PAYLOAD,2023-02-07 03:06:48,15.08864209,0.0001344,53.2168,311.1398,80.1218,279.9926,0.00095687,0.00014983,0.0,0 STARLINK-4794,1 53853U 22114AM  23038.12972546  .00014983  00000-0  95687-3 0  9999,2 53853  53.2168 311.1398 0001344  80.1218 279.9926 15.08864209 22909,6917.806,95.436,540.601,538.742,0.0
53853.0,STARLINK-4794,PAYLOAD,2023-02-07 22:11:25,15.08848601,4.39e-05,53.2171,307.5723,114.319,245.7848,0.00060974,9.432e-05,0.0,0 STARLINK-4794,1 53853U 22114AM  23038.92460407  .00009432  00000-0  60974-3 0  9999,2 53853  53.2171 307.5723 0000439 114.3190 245.7848 15.08848601 22482,6917.854,95.437,540.023,539.415,0.0
53853.0,STARLINK-4794,PAYLOAD,2023-02-08 04:32:58,15.08873518,9.43e-05,53.2167,306.3835,98.7392,261.3707,0.0018207,0.00028834,0.0,0 STARLINK-4794,1 53853U 22114AM  23039.18956052  .00028834  00000-0  18207-2 0  9992,2 53853  53.2167 306.3835 0000943  98.7392 261.3707 15.08873518 22525,6917.778,95.435,540.295,538.991,0.0
53853.0,STARLINK-4794,PAYLOAD,2023-02-08 22:02:13,15.08845137,0.0001171,53.2163,303.1112,121.9499,238.1607,0.0018535,0.00029338,0.0,0 STARLINK-4794,1 53853U 22114AM  23039.91821011  .00029338  00000-0  18535-2 0  9993,2 53853  53.2163 303.1112 0001171 121.9499 238.1607 15.08845137 23174,6917.865,95.437,540.54,538.92,0.0
53853.0,STARLINK-4794,PAYLOAD,2023-02-09 02:48:22,15.08851871,0.0001319,53.2171,302.2196,74.9624,285.1514,0.0014054,0.00022157,0.0,0 STARLINK-4794,1 53853U 22114AM  23040.11693160  .00022157  00000-0  14054-2 0  9993,2 53853  53.2171 302.2196 0001319  74.9624 285.1514 15.08851871 22660,6917.844,95.437,540.622,538.797,0.0
53853.0,STARLINK-4794,PAYLOAD,2023-02-09 07:34:32,15.08854927,0.0001315,53.2164,301.3264,77.9148,282.1991,0.0012023,0.00018906,0.0,0 STARLINK-4794,1 53853U 22114AM  23040.31565007  .00018906  00000-0  12023-2 0  9994,2 53853  53.2164 301.3264 0001315  77.9148 282.1991 15.08854927 23233,6917.835,95.437,540.609,538.79,0.0
53853.0,STARLINK-4794,PAYLOAD,2023-02-09 23:28:23,15.08845829,0.0001075,53.2177,298.3544,90.7882,269.3233,0.0012167,0.00019132,0.0,0 STARLINK-4794,1 53853U 22114AM  23040.97805332  .00019132  00000-0  12167-2 0  9995,2 53853  53.2177 298.3544 0001075  90.7882 269.3233 15.08845829 22791,6917.863,95.437,540.471,538.984,0.0
53853.0,STARLINK-4794,PAYLOAD,2023-02-10 02:39:09,15.08865785,0.0001373,53.2162,297.7576,93.7029,266.412,0.0023162,0.00036793,0.0,0 STARLINK-4794,1 53853U 22114AM  23041.11053061  .00036793  00000-0  23162-2 0  9995,2 53853  53.2162 297.7576 0001373  93.7029 266.4120 15.08865785 23359,6917.802,95.436,540.616,538.717,0.0
53853.0,STARLINK-4794,PAYLOAD,2023-02-10 23:19:10,15.08856269,0.0002083,53.2162,293.8929,82.1359,277.9869,0.001381,0.00021769,0.0,0 STARLINK-4794,1 53853U 22114AM  23041.97165396  .00021769  00000-0  13810-2 0  9990,2 53853  53.2162 293.8929 0002083  82.1359 277.9869 15.08856269 22943,6917.831,95.437,541.137,538.255,0.0
